{"type": "FeatureCollection", "features": [ {"type": "Feature", "properties": {"norad_id": 30272, "name": "FENGYUN 1C DEB", "group": "fengyun-1c-debris", "lat": 76.46849955575384, "lon": 19.664023528665805, "alt_km": 799.6935428260595, "timestamp": "2025-12-18T14:52:08.300750+00:00", "meta": {"OBJECT_NAME": "FENGYUN 1C DEB", "OBJECT_ID": "1999-025YH", "EPOCH": "2025-12-18T04:18:41.188032", "MEAN_MOTION": 14.14735581, "ECCENTRICITY": 0.00506433, "INCLINATION": 98.9014, "RA_OF_ASC_NODE": 59.8583, "ARG_OF_PERICENTER": 88.6095, "MEAN_ANOMALY": 272.0879, "EPHEMERIS_TYPE": 0, "CLASSIFICATION_TYPE": "U", "NORAD_CAT_ID": 30272, "ELEMENT_SET_NO": 999, "REV_AT_EPOCH": 96933, "BSTAR": 0.00094962496, "MEAN_MOTION_DOT": 1.808e-05, "MEAN_MOTION_DDOT": 0}, "tle": {"line1": "1 30272U 99025YH  25352.17964338  .00001808  00000+0  94962-3 0  9996", "line2": "2 30272  98.9014  59.8583 0050643  88.6095 272.0879 14.14735581969333"}}, "geometry": {"type": "Point", "coordinates": [19.664023528665805, 76.46849955575384]}}, {"type": "Feature", "properties": {"norad_id": 30273, "name": "FENGYUN 1C DEB", "group": "fengyun-1c-debris", "lat": 18.206169452944778, "lon": -170.0563005311479, "alt_km": 870.6197704758506, "timestamp": "2025-12-18T14:52:08.300760+00:00", "meta": {"OBJECT_NAME": "FENGYUN 1C DEB", "OBJECT_ID": "1999-025YJ", "EPOCH": "2025-12-18T07:22:08.263776", "MEAN_MOTION": 14.02668173, "ECCENTRICITY": 0.00604227, "INCLINATION": 98.84, "RA_OF_ASC_NODE": 6.7065, "ARG_OF_PERICENTER": 233.7774, "MEAN_ANOMALY": 151.205, "EPHEMERIS_TYPE": 0, "CLASSIFICATION_TYPE": "U", "NORAD_CAT_ID": 30273, "ELEMENT_SET_NO": 999, "REV_AT_EPOCH": 96607, "BSTAR": 0.00032209503, "MEAN_MOTION_DOT": 4.62e-06, "MEAN_MOTION_DDOT": 0}, "tle": {"line1": "1 30273U 99025YJ  25352.30704009  .00000462  00000+0  32210-3 0  9992", "line2": "2 30273  98.8400   6.7065 0060422 233.7774 151.2050 14.02668173966077"}}, "geometry": {"type": "Point", "coordinates": [-170.0563005311479, 18.206169452944778]}}, {"type": "Feature", "properties": {"norad_id": 30274, "name": "FENGYUN 1C DEB", "group": "fengyun-1c-debris", "lat": -56.359303947071176, "lon": 136.17488602533217, "alt_km": 727.838755194146, "timestamp": "2025-12-18T14:52:08.300770+00:00", "meta": {"OBJECT_NAME": "FENGYUN 1C DEB", "OBJECT_ID": "1999-025YK", "EPOCH": "2025-12-17T14:23:29.366016", "MEAN_MOTION": 14.51724541, "ECCENTRICITY": 0.00048169, "INCLINATION": 99.3015, "RA_OF_ASC_NODE": 120.7886, "ARG_OF_PERICENTER": 201.2011, "MEAN_ANOMALY": 174.1136, "EPHEMERIS_TYPE": 0, "CLASSIFICATION_TYPE": "U", "NORAD_CAT_ID": 30274, "ELEMENT_SET_NO": 999, "REV_AT_EPOCH": 98281, "BSTAR": 0.0019167067, "MEAN_MOTION_DOT": 7.654e-05, "MEAN_MOTION_DDOT": 0}, "tle": {"line1": "1 30274U 99025YK  25351.59964544  .00007654  00000+0  19167-2 0  9990", "line2": "2 30274  99.3015 120.7886 0004816 201.2011 174.1136 14.51724541982818"}}, "geometry": {"type": "Point", "coordinates": [136.17488602533217, -56.359303947071176]}}, {"type": "Feature", "properties": {"norad_id": 30275, "name": "FENGYUN 1C DEB", "group": "fengyun-1c-debris", "lat": 59.75797191484633, "lon": -87.92716406000598, "alt_km": 716.8385250742986, "timestamp": "2025-12-18T14:52:08.300781+00:00", "meta": {"OBJECT_NAME": "FENGYUN 1C DEB", "OBJECT_ID": "1999-025YL", "EPOCH": "2025-12-18T04:39:02.471040", "MEAN_MOTION": 14.4537327, "ECCENTRICITY": 0.00398567, "INCLINATION": 98.6289, "RA_OF_ASC_NODE": 76.5425, "ARG_OF_PERICENTER": 170.7928, "MEAN_ANOMALY": 254.4933, "EPHEMERIS_TYPE": 0, "CLASSIFICATION_TYPE": "U", "NORAD_CAT_ID": 30275, "ELEMENT_SET_NO": 999, "REV_AT_EPOCH": 98163, "BSTAR": 0.0016801726, "MEAN_MOTION_DOT": 5.924e-05, "MEAN_MOTION_DDOT": 0}, "tle": {"line1": "1 30275U 99025YL  25352.19377860  .00005924  00000+0  16802-2 0  9998", "line2": "2 30275  98.6289  76.5425 0039856 170.7928 254.4933 14.45373270981638"}}, "geometry": {"type": "Point", "coordinates": [-87.92716406000598, 59.75797191484633]}}, {"type": "Feature", "properties": {"norad_id": 30276, "name": "FENGYUN 1C DEB", "group": "fengyun-1c-debris", "lat": 33.99335358818005, "lon": 58.227548085995075, "alt_km": 785.8512607037865, "timestamp": "2025-12-18T14:52:08.300791+00:00", "meta": {"OBJECT_NAME": "FENGYUN 1C DEB", "OBJECT_ID": "1999-025YM", "EPOCH": "2025-12-17T16:49:58.545984", "MEAN_MOTION": 14.27055527, "ECCENTRICITY": 0.00245245, "INCLINATION": 98.8596, "RA_OF_ASC_NODE": 63.3354, "ARG_OF_PERICENTER": 77.2391, "MEAN_ANOMALY": 283.1528, "EPHEMERIS_TYPE": 0, "CLASSIFICATION_TYPE": "U", "NORAD_CAT_ID": 30276, "ELEMENT_SET_NO": 999, "REV_AT_EPOCH": 97601, "BSTAR": 0.00097366547, "MEAN_MOTION_DOT": 2.334e-05, "MEAN_MOTION_DDOT": 0}, "tle": {"line1": "1 30276U 99025YM  25351.70137206  .00002334  00000+0  97367-3 0  9991", "line2": "2 30276  98.8596  63.3354 0024524  77.2391 283.1528 14.27055527976015"}}, "geometry": {"type": "Point", "coordinates": [58.227548085995075, 33.99335358818005]}}, {"type": "Feature", "properties": {"norad_id": 30277, "name": "FENGYUN 1C DEB", "group": "fengyun-1c-debris", "lat": -0.33275074788795356, "lon": -116.74464867639507, "alt_km": 765.0500955545649, "timestamp": "2025-12-18T14:52:08.300801+00:00", "meta": {"OBJECT_NAME": "FENGYUN 1C DEB", "OBJECT_ID": "1999-025YN", "EPOCH": "2025-12-18T03:55:35.359680", "MEAN_MOTION": 14.1360559, "ECCENTRICITY": 0.01240767, "INCLINATION": 98.9732, "RA_OF_ASC_NODE": 62.8505, "ARG_OF_PERICENTER": 162.6075, "MEAN_ANOMALY": 218.1897, "EPHEMERIS_TYPE": 0, "CLASSIFICATION_TYPE": "U", "NORAD_CAT_ID": 30277, "ELEMENT_SET_NO": 999, "REV_AT_EPOCH": 96866, "BSTAR": 0.0008976128, "MEAN_MOTION_DOT": 1.778e-05, "MEAN_MOTION_DDOT": 0}, "tle": {"line1": "1 30277U 99025YN  25352.16360370  .00001778  00000+0  89761-3 0  9993", "line2": "2 30277  98.9732  62.8505 0124076 162.6075 218.1897 14.13605590968667"}}, "geometry": {"type": "Point", "coordinates": [-116.74464867639507, -0.33275074788795356]}}, {"type": "Feature", "properties": {"norad_id": 30279, "name": "FENGYUN 1C DEB", "group": "fengyun-1c-debris", "lat": -29.74021851184223, "lon": 102.28581881052669, "alt_km": 962.336913032731, "timestamp": "2025-12-18T14:52:08.300811+00:00", "meta": {"OBJECT_NAME": "FENGYUN 1C DEB", "OBJECT_ID": "1999-025YQ", "EPOCH": "2025-12-18T06:12:00.926784", "MEAN_MOTION": 14.23121504, "ECCENTRICITY": 0.02198657, "INCLINATION": 99.1505, "RA_OF_ASC_NODE": 287.1939, "ARG_OF_PERICENTER": 56.9543, "MEAN_ANOMALY": 102.5246, "EPHEMERIS_TYPE": 0, "CLASSIFICATION_TYPE": "U", "NORAD_CAT_ID": 30279, "ELEMENT_SET_NO": 999, "REV_AT_EPOCH": 97689, "BSTAR": 0.00063434599, "MEAN_MOTION_DOT": 1.786e-05, "MEAN_MOTION_DDOT": 0}, "tle": {"line1": "1 30279U 99025YQ  25352.25834406  .00001786  00000+0  63435-3 0  9990", "line2": "2 30279  99.1505 287.1939 0219865  56.9543 102.5246 14.23121504976896"}}, "geometry": {"type": "Point", "coordinates": [102.28581881052669, -29.74021851184223]}}, {"type": "Feature", "properties": {"norad_id": 30280, "name": "FENGYUN 1C DEB", "group": "fengyun-1c-debris", "lat": 6.488619929090697, "lon": 162.760952604276, "alt_km": 945.9951420865027, "timestamp": "2025-12-18T14:52:08.300821+00:00", "meta": {"OBJECT_NAME": "FENGYUN 1C DEB", "OBJECT_ID": "1999-025YR", "EPOCH": "2025-12-18T05:31:50.784096", "MEAN_MOTION": 13.98331629, "ECCENTRICITY": 0.0080204, "INCLINATION": 98.7749, "RA_OF_ASC_NODE": 341.3822, "ARG_OF_PERICENTER": 314.234, "MEAN_ANOMALY": 62.0761, "EPHEMERIS_TYPE": 0, "CLASSIFICATION_TYPE": "U", "NORAD_CAT_ID": 30280, "ELEMENT_SET_NO": 999, "REV_AT_EPOCH": 96483, "BSTAR": 5.9453665e-05, "MEAN_MOTION_DOT": 4.5e-07, "MEAN_MOTION_DDOT": 0}, "tle": {"line1": "1 30280U 99025YR  25352.23044889  .00000045  00000+0  59454-4 0  9992", "line2": "2 30280  98.7749 341.3822 0080204 314.2340  62.0761 13.98331629964830"}}, "geometry": {"type": "Point", "coordinates": [162.760952604276, 6.488619929090697]}}, {"type": "Feature", "properties": {"norad_id": 30281, "name": "FENGYUN 1C DEB", "group": "fengyun-1c-debris", "lat": -65.89575851718628, "lon": 2.4303995590354774, "alt_km": 858.818277847281, "timestamp": "2025-12-18T14:52:08.300832+00:00", "meta": {"OBJECT_NAME": "FENGYUN 1C DEB", "OBJECT_ID": "1999-025YS", "EPOCH": "2025-12-17T22:25:00.177312", "MEAN_MOTION": 14.10479398, "ECCENTRICITY": 0.00280502, "INCLINATION": 98.757, "RA_OF_ASC_NODE": 341.6109, "ARG_OF_PERICENTER": 221.9018, "MEAN_ANOMALY": 191.4902, "EPHEMERIS_TYPE": 0, "CLASSIFICATION_TYPE": "U", "NORAD_CAT_ID": 30281, "ELEMENT_SET_NO": 999, "REV_AT_EPOCH": 97294, "BSTAR": 0.00019953954, "MEAN_MOTION_DOT": 3.13e-06, "MEAN_MOTION_DDOT": 0}, "tle": {"line1": "1 30281U 99025YS  25351.93402983  .00000313  00000+0  19954-3 0  9990", "line2": "2 30281  98.7570 341.6109 0028050 221.9018 191.4902 14.10479398972947"}}, "geometry": {"type": "Point", "coordinates": [2.4303995590354774, -65.89575851718628]}}, {"type": "Feature", "properties": {"norad_id": 30282, "name": "FENGYUN 1C DEB", "group": "fengyun-1c-debris", "lat": 76.63831532580359, "lon": -145.38798164230158, "alt_km": 903.6335538175827, "timestamp": "2025-12-18T14:52:08.300842+00:00", "meta": {"OBJECT_NAME": "FENGYUN 1C DEB", "OBJECT_ID": "1999-025YT", "EPOCH": "2025-12-18T05:57:32.605056", "MEAN_MOTION": 14.12983121, "ECCENTRICITY": 0.02099778, "INCLINATION": 98.5014, "RA_OF_ASC_NODE": 355.2312, "ARG_OF_PERICENTER": 346.3074, "MEAN_ANOMALY": 24.4523, "EPHEMERIS_TYPE": 0, "CLASSIFICATION_TYPE": "U", "NORAD_CAT_ID": 30282, "ELEMENT_SET_NO": 999, "REV_AT_EPOCH": 97429, "BSTAR": 0.00029492954, "MEAN_MOTION_DOT": 6.35e-06, "MEAN_MOTION_DDOT": 0}, "tle": {"line1": "1 30282U 99025YT  25352.24829404  .00000635  00000+0  29493-3 0  9993", "line2": "2 30282  98.5014 355.2312 0209977 346.3074  24.4523 14.12983121974299"}}, "geometry": {"type": "Point", "coordinates": [-145.38798164230158, 76.63831532580359]}}]}